HAWK-11B                
1 62379U 24247C   26068.44730104  .00009093  00000+0  32842-3 0  9993
2 62379  45.0161 115.7610 0004690 333.0326  27.0314 15.28847070 67738
STARLINK-35805          
1 66359U 25254M   26068.72649998  .00012473  00000+0  43263-3 0  9990
2 66359  53.1582 232.1143 0000824  81.1817 278.9277 15.30193213 20115
